{
  "type": "FeatureCollection",
  "features": [
    {
      "type": "Feature",
      "properties": {
        "norad_id": 28051,
        "name": "IRS-P6 (RESOURCESAT-1)",
        "group": "resource",
        "lat": -56.24810856760751,
        "lon": -167.72650520427996,
        "alt_km": 748.3103053686937,
        "timestamp": "2025-12-10T05:46:13.453520+00:00",
        "meta_object_name": "IRS-P6 (RESOURCESAT-1)",
        "meta_object_id": "2003-046A",
        "meta_epoch": "2025-12-09T21:06:52.126272",
        "meta_mean_motion": 14.36072391,
        "meta_eccentricity": 0.0063953,
        "meta_inclination": 98.2176,
        "meta_ra_of_asc_node": 24.4189,
        "meta_arg_of_pericenter": 189.2833,
        "meta_mean_anomaly": 343.7471,
        "meta_ephemeris_type": 0,
        "meta_classification_type": "U",
        "meta_norad_cat_id": 28051,
        "meta_element_set_no": 999,
        "meta_rev_at_epoch": 15335,
        "meta_bstar": 6.7267e-05,
        "meta_mean_motion_dot": 1.59e-06,
        "meta_mean_motion_ddot": 0,
        "tle_line1": "1 28051U 03046A   25343.87976998  .00000159  00000+0  67267-4 0  9995",
        "tle_line2": "2 28051  98.2176  24.4189 0063953 189.2833 343.7471 14.36072391153351"
      },
      "geometry": {
        "type": "Point",
        "coordinates": [
          -167.72650520427996,
          -56.24810856760751
        ]
      }
    },
    {
      "type": "Feature",
      "properties": {
        "norad_id": 28220,
        "name": "SHIYAN-1 (SY-1)",
        "group": "resource",
        "lat": 3.2771064270786257,
        "lon": 45.175847212174695,
        "alt_km": 480.78287321587595,
        "timestamp": "2025-12-10T05:46:13.453532+00:00",
        "meta_object_name": "SHIYAN-1 (SY-1)",
        "meta_object_id": "2004-012A",
        "meta_epoch": "2025-12-09T10:53:45.983616",
        "meta_mean_motion": 15.28007061,
        "meta_eccentricity": 0.00058493,
        "meta_inclination": 97.8933,
        "meta_ra_of_asc_node": 44.7984,
        "meta_arg_of_pericenter": 338.3085,
        "meta_mean_anomaly": 21.7905,
        "meta_ephemeris_type": 0,
        "meta_classification_type": "U",
        "meta_norad_cat_id": 28220,
        "meta_element_set_no": 999,
        "meta_rev_at_epoch": 18206,
        "meta_bstar": 0.00068257487,
        "meta_mean_motion_dot": 0.00018604,
        "meta_mean_motion_ddot": 0,
        "tle_line1": "1 28220U 04012A   25343.45400444  .00018604  00000+0  68257-3 0  9992",
        "tle_line2": "2 28220  97.8933  44.7984 0005849 338.3085  21.7905 15.28007061182068"
      },
      "geometry": {
        "type": "Point",
        "coordinates": [
          45.175847212174695,
          3.2771064270786257
        ]
      }
    },
    {
      "type": "Feature",
      "properties": {
        "norad_id": 28376,
        "name": "AURA",
        "group": "resource",
        "lat": -77.10723335740032,
        "lon": -25.814994846631304,
        "alt_km": 698.3029138880102,
        "timestamp": "2025-12-10T05:46:13.453542+00:00",
        "meta_object_name": "AURA",
        "meta_object_id": "2004-026A",
        "meta_epoch": "2025-12-09T20:16:27.130944",
        "meta_mean_motion": 14.60936693,
        "meta_eccentricity": 0.0001189,
        "meta_inclination": 98.3181,
        "meta_ra_of_asc_node": 294.0579,
        "meta_arg_of_pericenter": 93.6887,
        "meta_mean_anomaly": 266.4449,
        "meta_ephemeris_type": 0,
        "meta_classification_type": "U",
        "meta_norad_cat_id": 28376,
        "meta_element_set_no": 999,
        "meta_rev_at_epoch": 13856,
        "meta_bstar": 0.00039943,
        "meta_mean_motion_dot": 1.909e-05,
        "meta_mean_motion_ddot": 0,
        "tle_line1": "1 28376U 04026A   25343.84475846  .00001909  00000+0  39943-3 0  9990",
        "tle_line2": "2 28376  98.3181 294.0579 0001189  93.6887 266.4449 14.60936693138569"
      },
      "geometry": {
        "type": "Point",
        "coordinates": [
          -25.814994846631304,
          -77.10723335740032
        ]
      }
    },
    {
      "type": "Feature",
      "properties": {
        "norad_id": 28649,
        "name": "IRS-P5 (CARTOSAT-1)",
        "group": "resource",
        "lat": -47.93040878695875,
        "lon": -177.68492334527218,
        "alt_km": 604.5531479712836,
        "timestamp": "2025-12-10T05:46:13.453568+00:00",
        "meta_object_name": "IRS-P5 (CARTOSAT-1)",
        "meta_object_id": "2005-017A",
        "meta_epoch": "2025-12-09T19:04:50.908224",
        "meta_mean_motion": 14.90389909,
        "meta_eccentricity": 0.0001402,
        "meta_inclination": 97.5497,
        "meta_ra_of_asc_node": 10.3388,
        "meta_arg_of_pericenter": 46.4373,
        "meta_mean_anomaly": 313.6962,
        "meta_ephemeris_type": 0,
        "meta_classification_type": "U",
        "meta_norad_cat_id": 28649,
        "meta_element_set_no": 999,
        "meta_rev_at_epoch": 11560,
        "meta_bstar": 0.00025861,
        "meta_mean_motion_dot": 2.466e-05,
        "meta_mean_motion_ddot": 0,
        "tle_line1": "1 28649U 05017A   25343.79503366  .00002466  00000+0  25861-3 0  9990",
        "tle_line2": "2 28649  97.5497  10.3388 0001402  46.4373 313.6962 14.90389909115604"
      },
      "geometry": {
        "type": "Point",
        "coordinates": [
          -177.68492334527218,
          -47.93040878695875
        ]
      }
    },
    {
      "type": "Feature",
      "properties": {
        "norad_id": 28893,
        "name": "SINAH 1",
        "group": "resource",
        "lat": 77.7573777317032,
        "lon": -25.18105595980978,
        "alt_km": 665.5642323070024,
        "timestamp": "2025-12-10T05:46:13.453581+00:00",
        "meta_object_name": "SINAH 1",
        "meta_object_id": "2005-043D",
        "meta_epoch": "2025-12-09T19:28:38.394336",
        "meta_mean_motion": 14.63957879,
        "meta_eccentricity": 0.00152,
        "meta_inclination": 98.2602,
        "meta_ra_of_asc_node": 112.361,
        "meta_arg_of_pericenter": 145.6717,
        "meta_mean_anomaly": 214.547,
        "meta_ephemeris_type": 0,
        "meta_classification_type": "U",
        "meta_norad_cat_id": 28893,
        "meta_element_set_no": 999,
        "meta_rev_at_epoch": 7281,
        "meta_bstar": 0.00018448,
        "meta_mean_motion_dot": 9.18e-06,
        "meta_mean_motion_ddot": 0,
        "tle_line1": "1 28893U 05043D   25343.81155549  .00000918  00000+0  18448-3 0  9992",
        "tle_line2": "2 28893  98.2602 112.3610 0015200 145.6717 214.5470 14.63957879 72812"
      },
      "geometry": {
        "type": "Point",
        "coordinates": [
          -25.18105595980978,
          77.7573777317032
        ]
      }
    },
    {
      "type": "Feature",
      "properties": {
        "norad_id": 29079,
        "name": "EROS B",
        "group": "resource",
        "lat": -74.34123533744776,
        "lon": -106.71306212369089,
        "alt_km": 373.1751166975264,
        "timestamp": "2025-12-10T05:46:13.453592+00:00",
        "meta_object_name": "EROS B",
        "meta_object_id": "2006-014A",
        "meta_epoch": "2025-12-09T19:29:08.602368",
        "meta_mean_motion": 15.67048707,
        "meta_eccentricity": 0.0001679,
        "meta_inclination": 97.3476,
        "meta_ra_of_asc_node": 100.2485,
        "meta_arg_of_pericenter": 284.7593,
        "meta_mean_anomaly": 75.3481,
        "meta_ephemeris_type": 0,
        "meta_classification_type": "U",
        "meta_norad_cat_id": 29079,
        "meta_element_set_no": 999,
        "meta_rev_at_epoch": 9034,
        "meta_bstar": 0.0017975,
        "meta_mean_motion_dot": 0.00195346,
        "meta_mean_motion_ddot": 0,
        "tle_line1": "1 29079U 06014A   25343.81190512  .00195346  00000+0  17975-2 0  9990",
        "tle_line2": "2 29079  97.3476 100.2485 0001679 284.7593  75.3481 15.67048707 90345"
      },
      "geometry": {
        "type": "Point",
        "coordinates": [
          -106.71306212369089,
          -74.34123533744776
        ]
      }
    },
    {
      "type": "Feature",
      "properties": {
        "norad_id": 29228,
        "name": "RESURS-DK 1",
        "group": "resource",
        "lat": -50.2506239205477,
        "lon": 82.22436750726725,
        "alt_km": 532.2313189619454,
        "timestamp": "2025-12-10T05:46:13.453602+00:00",
        "meta_object_name": "RESURS-DK 1",
        "meta_object_id": "2006-021A",
        "meta_epoch": "2025-12-09T18:53:58.310016",
        "meta_mean_motion": 15.12136626,
        "meta_eccentricity": 0.0007519,
        "meta_inclination": 69.9336,
        "meta_ra_of_asc_node": 109.4675,
        "meta_arg_of_pericenter": 261.958,
        "meta_mean_anomaly": 98.0733,
        "meta_ephemeris_type": 0,
        "meta_classification_type": "U",
        "meta_norad_cat_id": 29228,
        "meta_element_set_no": 999,
        "meta_rev_at_epoch": 7393,
        "meta_bstar": 0.00027732,
        "meta_mean_motion_dot": 4.688e-05,
        "meta_mean_motion_ddot": 0,
        "tle_line1": "1 29228U 06021A   25343.78748044  .00004688  00000+0  27732-3 0  9990",
        "tle_line2": "2 29228  69.9336 109.4675 0007519 261.9580  98.0733 15.12136626 73931"
      },
      "geometry": {
        "type": "Point",
        "coordinates": [
          82.22436750726725,
          -50.2506239205477
        ]
      }
    }
  ]
}